{
  "norad_id": 53480,
  "name": "STARLINK-4442",
  "history": [
    {
      "epoch": "2026-05-02T12:00:02.998944Z",
      "apogee_km": 492.86156680788736,
      "perigee_km": 490.85690190670266,
      "latitude_deg": -79.99404212575804,
      "longitude_deg": -106.79191465221575,
      "height_km": 520.8342262213714,
      "semi_major_axis_km": 6869.996234357295,
      "eccentricity": 0.0001459,
      "inclination_deg": 97.6033,
      "raan_deg": 244.8368,
      "arg_perigee_deg": 68.3041,
      "mean_anomaly_deg": 208.3311,
      "mean_motion_rev_day": 15.24642471
    },
    {
      "epoch": "2026-05-03T20:00:01.999008Z",
      "apogee_km": 490.5785475346065,
      "perigee_km": 488.7544589241488,
      "latitude_deg": 31.02602170761401,
      "longitude_deg": 79.87492716270434,
      "height_km": 493.0817049788447,
      "semi_major_axis_km": 6867.803503229377,
      "eccentricity": 0.0001328,
      "inclination_deg": 97.6035,
      "raan_deg": 246.1945,
      "arg_perigee_deg": 76.3809,
      "mean_anomaly_deg": 314.9031,
      "mean_motion_rev_day": 15.25372704
    },
    {
      "epoch": "2026-05-04T20:00:01.999008Z",
      "apogee_km": 489.58342743694357,
      "perigee_km": 486.98654664144397,
      "latitude_deg": 59.760337411301194,
      "longitude_deg": -82.35271939107704,
      "height_km": 497.7001849608557,
      "semi_major_axis_km": 6866.4219870391935,
      "eccentricity": 0.0001891,
      "inclination_deg": 97.6034,
      "raan_deg": 247.2092,
      "arg_perigee_deg": 65.8452,
      "mean_anomaly_deg": 53.5981,
      "mean_motion_rev_day": 15.25833082
    },
    {
      "epoch": "2026-05-05T20:00:03.000384Z",
      "apogee_km": 487.9450005868239,
      "perigee_km": 485.6287752670378,
      "latitude_deg": -29.56012341522669,
      "longitude_deg": -99.80675961860582,
      "height_km": 498.4330763306451,
      "semi_major_axis_km": 6864.923887926931,
      "eccentricity": 0.0001687,
      "inclination_deg": 97.6044,
      "raan_deg": 248.227,
      "arg_perigee_deg": 95.2529,
      "mean_anomaly_deg": 114.3108,
      "mean_motion_rev_day": 15.26332572
    }
  ]
}